NORAD_CAT_ID,OBJECT_NAME,OBJECT_TYPE,EPOCH,MEAN_MOTION,ECCENTRICITY,INCLINATION,RA_OF_ASC_NODE,ARG_OF_PERICENTER,MEAN_ANOMALY,BSTAR,MEAN_MOTION_DOT,MEAN_MOTION_DDOT,TLE_LINE0,TLE_LINE1,TLE_LINE2,SEMIMAJOR_AXIS,PERIOD,APOGEE,PERIGEE,DECAYED
55660.0,STARLINK-5467,PAYLOAD,2023-04-15 19:33:05,15.69926624,0.000266,69.9998,349.5468,258.0714,102.0183,-2.0485e-06,-4.59e-06,0.0,0 STARLINK-5467,1 55660U 23021AJ  23105.81464300 -.00000459  00000-0 -20485-5 0  9991,2 55660  69.9998 349.5468 0002660 258.0714 102.0183 15.69926624  9806,6737.244,91.724,360.901,357.317,0.0
55660.0,STARLINK-5467,PAYLOAD,2023-04-16 04:43:36,15.6991657,0.0003144,69.9981,348.4733,273.2964,86.7872,-8.9151e-06,-1.284e-05,0.0,0 STARLINK-5467,1 55660U 23021AJ  23106.19695048 -.00001284  00000-0 -89151-5 0  9990,2 55660  69.9981 348.4733 0003144 273.2964  86.7872 15.69916570  9863,6737.273,91.725,361.256,357.019,0.0
55660.0,STARLINK-5467,PAYLOAD,2023-04-16 18:29:22,15.69923705,0.0003622,69.9974,346.8606,265.9968,94.0813,-2.5073e-06,-5.14e-06,0.0,0 STARLINK-5467,1 55660U 23021AJ  23106.77039435 -.00000514  00000-0 -25073-5 0  9994,2 55660  69.9974 346.8606 0003622 265.9968  94.0813 15.69923705  9954,6737.252,91.724,361.558,356.677,0.0
55660.0,STARLINK-5467,PAYLOAD,2023-04-17 03:39:52,15.69939369,0.0003246,69.9995,345.7863,260.5299,99.553,-2.0134e-05,-2.634e-05,0.0,0 STARLINK-5467,1 55660U 23021AJ  23107.15269088 -.00002634  00000-0 -20134-4 0  9993,2 55660  69.9995 345.7863 0003246 260.5299  99.5530 15.69939369  9713,6737.207,91.723,361.259,356.886,0.0
55660.0,STARLINK-5467,PAYLOAD,2023-04-17 18:57:23,15.69930669,0.0003233,69.9971,343.9952,267.4173,92.6653,-5.3939e-06,-8.61e-06,0.0,0 STARLINK-5467,1 55660U 23021AJ  23107.78986090 -.00000861  00000-0 -53939-5 0  9991,2 55660  69.9971 343.9952 0003233 267.4173  92.6653 15.69930669  9814,6737.232,91.724,361.276,356.919,0.0
55660.0,STARLINK-5467,PAYLOAD,2023-04-18 04:07:54,15.69935602,0.0003273,69.9963,342.9208,269.2677,90.8144,-5.8133e-06,-9.12e-06,0.0,0 STARLINK-5467,1 55660U 23021AJ  23108.17215604 -.00000912  00000-0 -58133-5 0  9999,2 55660  69.9963 342.9208 0003273 269.2677  90.8144 15.69935602 10179,6737.218,91.724,361.288,356.878,0.0
55660.0,STARLINK-5467,PAYLOAD,2023-04-18 17:53:41,15.699184,0.000304,69.9982,341.3056,261.0715,99.0136,-3.2664e-06,-6.05e-06,0.0,0 STARLINK-5467,1 55660U 23021AJ  23108.74561846 -.00000605  00000-0 -32664-5 0  9994,2 55660  69.9982 341.3056 0003040 261.0715  99.0136 15.69918400 10268,6737.267,91.725,361.181,357.084,0.0
55660.0,STARLINK-5467,PAYLOAD,2023-04-19 03:04:12,15.69916229,0.000285,69.9991,340.2338,270.9823,89.1046,-4.7339e-06,-7.81e-06,0.0,0 STARLINK-5467,1 55660U 23021AJ  23109.12792058 -.00000781  00000-0 -47339-5 0  9998,2 55660  69.9991 340.2338 0002850 270.9823  89.1046 15.69916229 10320,6737.274,91.725,361.059,357.219,0.0
55660.0,STARLINK-5467,PAYLOAD,2023-04-19 21:25:12,15.69924592,0.0003206,69.9964,338.0808,264.7677,95.3153,1.0198e-05,1.014e-05,0.0,0 STARLINK-5467,1 55660U 23021AJ  23109.89251114  .00001014  00000-0  10198-4 0  9995,2 55660  69.9964 338.0808 0003206 264.7677  95.3153 15.69924592 10444,6737.25,91.724,361.275,356.955,0.0
55660.0,STARLINK-5467,PAYLOAD,2023-04-20 00:28:42,15.69936413,0.0003081,69.9969,337.725,268.6675,91.4167,1.4107e-05,1.485e-05,0.0,0 STARLINK-5467,1 55660U 23021AJ  23110.01993782  .00001485  00000-0  14107-4 0  9991,2 55660  69.9969 337.7250 0003081 268.6675  91.4167 15.69936413 10467,6737.216,91.723,361.157,357.005,0.0
55660.0,STARLINK-5467,PAYLOAD,2023-04-20 18:49:45,15.69916435,0.0002715,69.9983,335.5742,264.0192,96.0695,-7.9816e-06,-1.172e-05,0.0,0 STARLINK-5467,1 55660U 23021AJ  23110.78455710 -.00001172  00000-0 -79816-5 0  9993,2 55660  69.9983 335.5742 0002715 264.0192  96.0695 15.69916435 10281,6737.273,91.725,360.967,357.309,0.0
55660.0,STARLINK-5467,PAYLOAD,2023-04-21 02:28:29,15.69939304,0.0002937,69.9987,334.6795,261.7418,98.3445,1.1998e-05,1.231e-05,0.0,0 STARLINK-5467,1 55660U 23021AJ  23111.10312133  .00001231  00000-0  11998-4 0  9991,2 55660  69.9987 334.6795 0002937 261.7418  98.3445 15.69939304 10338,6737.208,91.723,361.051,357.094,0.0
55660.0,STARLINK-5467,PAYLOAD,2023-04-21 08:35:30,15.69925205,0.0003324,69.997,333.962,271.0051,89.0763,1.2577e-05,1.3e-05,0.0,0 STARLINK-5467,1 55660U 23021AJ  23111.35799541  .00001300  00000-0  12577-4 0  9991,2 55660  69.9970 333.9620 0003324 271.0051  89.0763 15.69925205 10679,6737.248,91.724,361.352,356.874,0.0
55660.0,STARLINK-5467,PAYLOAD,2023-04-21 20:49:31,15.69932857,0.0003256,69.9962,332.5298,274.8363,85.2461,-1.3809e-06,-3.79e-06,0.0,0 STARLINK-5467,1 55660U 23021AJ  23111.86772687 -.00000379  00000-0 -13809-5 0  9996,2 55660  69.9962 332.5298 0003256 274.8363  85.2461 15.69932857 10750,6737.226,91.724,361.285,356.897,0.0
55660.0,STARLINK-5467,PAYLOAD,2023-04-22 21:17:34,15.69919552,0.0003386,69.9987,329.6648,260.1154,99.9659,3.7057e-06,2.33e-06,0.0,0 STARLINK-5467,1 55660U 23021AJ  23112.88720389  .00000233  00000-0  37057-5 0  9999,2 55660  69.9987 329.6648 0003386 260.1154  99.9659 15.69919552 10616,6737.264,91.724,361.41,356.848,0.0
55660.0,STARLINK-5467,PAYLOAD,2023-04-23 14:06:50,15.6992617,0.0002198,69.9991,327.6949,278.3202,81.7745,1.7387e-06,-3e-08,0.0,0 STARLINK-5467,1 55660U 23021AJ  23113.58808782 -.00000003  00000-0  17387-5 0  9991,2 55660  69.9991 327.6949 0002198 278.3202  81.7745 15.69926170 11023,6737.245,91.724,360.591,357.629,0.0
55660.0,STARLINK-5467,PAYLOAD,2023-04-23 23:17:20,15.69942518,0.0003208,69.9983,326.6174,264.6944,95.3886,1.1925e-05,1.222e-05,0.0,0 STARLINK-5467,1 55660U 23021AJ  23113.97037310  .00001222  00000-0  11925-4 0  9999,2 55660  69.9983 326.6174 0003208 264.6944  95.3886 15.69942518 10780,6737.198,91.723,361.225,356.902,0.0
55660.0,STARLINK-5467,PAYLOAD,2023-04-24 17:38:21,15.69928155,0.0003091,69.9992,324.4689,243.0065,117.0815,2.793e-05,3.147e-05,0.0,0 STARLINK-5467,1 55660U 23021AJ  23114.73497378  .00003147  00000-0  27930-4 0  9999,2 55660  69.9992 324.4689 0003091 243.0065 117.0815 15.69928155 10901,6737.24,91.724,361.187,357.022,0.0
55660.0,STARLINK-5467,PAYLOAD,2023-04-24 23:45:26,15.69877549,0.0003558,69.9983,323.7527,260.4598,99.6195,-3.4864e-05,-4.395e-05,0.0,0 STARLINK-5467,1 55660U 23021AJ  23114.98988592 -.00004395  00000-0 -34864-4 0  9991,2 55660  69.9983 323.7527 0003558 260.4598  99.6195 15.69877549 10946,6737.384,91.727,361.646,356.852,0.0
55660.0,STARLINK-5467,PAYLOAD,2023-04-25 13:31:12,15.69887128,0.0003708,69.9978,322.1362,275.1459,84.9313,-2.5665e-05,-3.293e-05,0.0,0 STARLINK-5467,1 55660U 23021AJ  23115.56334034 -.00003293  00000-0 -25665-4 0  9997,2 55660  69.9978 322.1362 0003708 275.1459  84.9313 15.69887128 11333,6737.357,91.726,361.72,356.724,0.0
55660.0,STARLINK-5467,PAYLOAD,2023-04-26 01:45:11,15.69933493,0.0003387,69.9993,320.7061,265.8396,94.2412,6.734e-06,5.97e-06,0.0,0 STARLINK-5467,1 55660U 23021AJ  23116.07304424  .00000597  00000-0  67340-5 0  9993,2 55660  69.9993 320.7061 0003387 265.8396  94.2412 15.69933493 11116,6737.224,91.724,361.371,356.807,0.0
55660.0,STARLINK-5467,PAYLOAD,2023-04-26 15:30:54,15.69931684,0.0003859,70.0001,319.0951,273.5726,86.5028,8.9467e-05,0.00010563,0.0,0 STARLINK-5467,1 55660U 23021AJ  23116.64646478  .00010563  00000-0  89467-4 0  9991,2 55660  70.0001 319.0951 0003859 273.5726  86.5028 15.69931684 11505,6737.229,91.724,361.694,356.495,0.0
55660.0,STARLINK-5467,PAYLOAD,2023-04-27 00:41:27,15.69905709,0.000399,69.9971,318.0158,275.5615,84.5125,4.6536e-05,5.382e-05,0.0,0 STARLINK-5467,1 55660U 23021AJ  23117.02879228  .00005382  00000-0  46536-4 0  9998,2 55660  69.9971 318.0158 0003990 275.5615  84.5125 15.69905709 11269,6737.304,91.725,361.857,356.481,0.0
55660.0,STARLINK-5467,PAYLOAD,2023-04-27 12:55:29,15.69921595,0.0003812,69.9978,316.5854,278.6323,81.4441,9.9184e-06,9.8e-06,0.0,0 STARLINK-5467,1 55660U 23021AJ  23117.53853127  .00000980  00000-0  99184-5 0  9991,2 55660  69.9978 316.5854 0003812 278.6323  81.4441 15.69921595 11645,6737.258,91.724,361.692,356.555,0.0
55660.0,STARLINK-5467,PAYLOAD,2023-04-27 20:34:14,15.69928825,0.000265,70.0012,315.6914,266.5088,93.5805,1.5657e-05,1.671e-05,0.0,0 STARLINK-5467,1 55660U 23021AJ  23117.85710917  .00001671  00000-0  15657-4 0  9995,2 55660  70.0012 315.6914 0002650 266.5088  93.5805 15.69928825 11390,6737.238,91.724,360.888,357.317,0.0
55660.0,STARLINK-5467,PAYLOAD,2023-04-28 01:09:30,15.69927446,0.0003149,69.9996,315.1544,306.4687,53.6218,-1.2759e-05,-1.747e-05,0.0,0 STARLINK-5467,1 55660U 23021AJ  23118.04826799 -.00001747  00000-0 -12759-4 0  9999,2 55660  69.9996 315.1544 0003149 306.4687  53.6218 15.69927446 11422,6737.242,91.724,361.228,356.985,0.0
55660.0,STARLINK-5467,PAYLOAD,2023-04-28 21:02:15,15.69925461,0.0003004,69.9992,312.826,275.7906,84.2947,1.5229e-05,1.619e-05,0.0,0 STARLINK-5467,1 55660U 23021AJ  23118.87657072  .00001619  00000-0  15229-4 0  9997,2 55660  69.9992 312.8260 0003004 275.7906  84.2947 15.69925461 11557,6737.247,91.724,361.136,357.088,0.0
55660.0,STARLINK-5467,PAYLOAD,2023-04-29 13:51:32,15.69925615,0.0003914,69.9978,310.8521,274.9083,85.1666,-8.5231e-06,-1.238e-05,0.0,0 STARLINK-5467,1 55660U 23021AJ  23119.57745956 -.00001238  00000-0 -85231-5 0  9994,2 55660  69.9978 310.8521 0003914 274.9083  85.1666 15.69925615 11960,6737.247,91.724,361.749,356.475,0.0
55660.0,STARLINK-5467,PAYLOAD,2023-04-29 23:02:02,15.69934776,0.0003852,69.9976,309.7767,272.3243,87.7512,1.3465e-06,-5.1e-07,0.0,0 STARLINK-5467,1 55660U 23021AJ  23119.95975028 -.00000051  00000-0  13465-5 0  9992,2 55660  69.9976 309.7767 0003852 272.3243  87.7512 15.69934776 11728,6737.221,91.724,361.681,356.49,0.0
55660.0,STARLINK-5467,PAYLOAD,2023-04-30 20:26:35,15.69924724,0.0003404,69.9977,307.2679,264.5296,95.5511,-8.3e-06,-1.211e-05,0.0,0 STARLINK-5467,1 55660U 23021AJ  23120.85179460 -.00001211  00000-0 -83000-5 0  9991,2 55660  69.9977 307.2679 0003404 264.5296  95.5511 15.69924724 11861,6737.249,91.724,361.408,356.821,0.0
